County,Facility_Name,Permit_Number,Facility_Type,Facility_Address,Facility_City,Facility_State,Facility_Zip,Dominion,Contact_Name,Contact_Address,Contact_City,Contact_State,Contact_Zip,Manager_Name,Manager_Address,Manager_City,Manager_State,Manager_Zip,Contact_AreaCode,Contact_Phone,Manager_AreaCode,Manager_Phone,Latitude ,Longitude ,Notes
Baldwin,Attaway Transfer Station,PBR-005-28TS,TS,150 Dundee Dr.,Milledgeville,GA,31061,Private Commercial,"Attaway Recycling, LLC",150 Dundee Dr.,Milledgeville,GA,31061,Robbie Attaway,520 Hwy. 22 West,Milledgville,GA,31061,478,414-1675,478,414-1675,33.121,-83.2063,
Baldwin,Advanced Disposal Services - Middle Georgia Transfer Station,PBR-005-12TS,TS,154 Dundee Dr.,Milledgeville,GA,31061,Private,Advanced Disposal Services,"7915 Baymeadows Way, Suite 300",Jacksonville,FL,32256,Christain B. Mills,"7915 Baymeadows Way, Suite 300",Jacksonville,FL,32256,904,737-7900,478,453-4435,33.11882,-83.20836,
Baldwin,Baldwin County Board of Commissioners Transfer Station #2,PBR-005-14TS,TS,207 Lovers Lane,Milledgeville,GA,31061,Public,Baldwin County Board of Commissioners,"121 N. Wilkinson St., Suite 314",Milledgeville,GA,31061,,,,,,478,445-4791,,,33.094292,-83.147171,
Baldwin,Advanced Disposal Services - Britt Waters Road Transfer Station,PBR-005-26TS,TS,131 Britt Waters Rd.,Milledgeville,GA,31061,Private,Advanced Disposal Services,"7915 Baymeadows Way, Suite 300",Jacksonville,FL,32256,"Walter H. Hall, Jr.","7915 Baymeadows Way, Suite 300",Jacksonville,FL,32256,904,737-7900,904,737-7900,33.08809,-83.27824,
Baldwin,Baldwin County Board of Commissioners Transfer Station #3,PBR-005-15TS,TS,100 Frank Bone Dr.,Milledgeville,GA,31061,Public,Baldwin County Board of Commissioners,"121 N. Wilkinson St., Suite 314",Milledgeville,GA,31061,,,,,,478,445-4791,,,33.072554,-83.247548,
Baldwin,Baldwin County Board of Commissioners Transfer Station #1,PBR-005-13TS,TS,115 Thomas Field Rd.,Milledgeville,GA,31061,Public,Baldwin County Board of Commissioners,"121 N. Wilkinson St., Suite 314",Milledgeville,GA,31061,,,,,,478,445-4791,,,33.039357,-83.233735,
Barrow,211 Waste Disposal,PBR-007-13TS,TS,1392 Hwy. 211 NE,Winder,GA,30680,Private,Tommy Ledbetter,1370 Hwy. 211 NE,Winder,GA,30680,Stacey Stern,1370 Hwy. 211 NE,Winder,GA,30680,770,307-2796,770,307-2796,34.02477,-83.61978,
Bartow,"Baxter Waste Systems, Inc.",PBR-008-18TS,TS,365 Peeples Valley Rd.,Cartersville,GA,30120,Private,Jeff Baxter,1534 Hwy. 411 NE,Cartersville,GA,30120,,,,,,770,386-4775,,,34.22533,-84.80498,
Bartow,Advanced Disposal Services - Cartersville Transfer Station,"PBR-008-24COL,TS",TS,125 Riverside Dr.,Cartersville,GA,30120,Private,"Advanced Disposal Services, Operator; Felton Properties, LLC, Owner","9995 Gate Pkwy., Suite 200",Jacksonville,FL,32246,"Walter H. Hall, Jr.","9995 Gate Pkwy., Suite 200",Jacksonville,FL,32246,904,737-7900,678,792-7000,34.147608,-84.848966,
Bartow,"CFM Environmental Services, Inc.",PBR-008-26TS,TS,225 Industrial Park Rd. NE,Cartersville,GA,30121,Private Commercial,Raymond L. Martin,3885 Brookwood Ct.,Decatur,GA,30034,Raymond L. Martin,225 Industrial Park Rd.,Cartersville,GA,30121,770,607-8647,770,607-8617,33.08809,-83.27824,
Ben Hill,Fitzgerald-Ben Hill County Regional Solid Waste Management Authority Transfer Station,PBR-009-10TS,TS,544 Camp Brooklyn Rd.,Fitzgerald,GA,31750,Public,Fitzgerald-Ben Hill Landfill,544 Camp Brooklyn Rd.,Fitzgerald,GA,31750,Neal Poole,544 Camp Brooklyn Rd.,Fitzgerald,GA,31750,229,426-5075,229,426-5075,31.74744,-83.19563,
Berrien,Rest EZ Country Waste Pick-Up,PBR-010-11TS,TS,520 Country Farm Rd.,Nashville,GA,31639,Private,Brenda Kaye Ashley,P.O. Box 1027,Nashville,GA,31639,,,,,,229,532-4798,,,31.192145,-83.267887,
Berrien,"Soil Remediation, Inc.",PBR-010-09TS,TS,605 Pauline Ave.,Ray City,GA,31645,Private,"Soil Remediation, Inc.",64 Pauline Ave.,Ray City,GA,31645,Joe Brashier,64 Pauline Ave.,Ray City,GA,31645,229,455-2300,229,455-2300,31.068286,-83.196611,
Bibb,Advanced Disposal Services - Macon Transfer Station,PBR-011-39TS,TS,4291 Interstate Dr.,Macon,GA,31210,Private,Advanced Disposal Services,"9250 Baymeadows Rd., Suite 220",Jacksonville,GA,32256,,,,,,904,636-0699,,,32.829226,-83.73061,
Bibb,Stericycle Biomedical Waste Transfer Station,PBR-011-44TS,TS,4269 Interstate Pkwy.,Macon,GA,31220,Private,"Stericycle, Inc.",1924 Joy Lake Rd.,Lake City,GA,30260,,,,,,404,362-9090,,,32.827984,-83.733625,
Bibb,"Waste Research and Recovery of Macon, Inc. Transfer",PBR-011-25TS,TS,121 & 131 Tuft Springs Rd.,Macon,GA,31201,Private,R. Bear Smith,"6075 The Corners Pkwy., Suite 207",Norcross,GA,30092,,,,,,770,825-0400,,,32.8071,-83.634828,
Bleckley,Bleckley County Solid Waste Transfer Station,PBR-012-04TS,TS,794 Hwy. 26 East,Cochran,GA,31014,Public,Michael A. Polsky,306 SE Second St.,Cochran,GA,31014,,,,,,478,934-3200,,,32.42111,-83.3075,
Brooks,Brooks County,PBR-014-02TS,TS,400 E. Courtland Ave.,Quitman,GA,31643,Public,Hilman Walden,P.O. Box 272,Quitman,GA,31643,,,,,,912,263-8001,,,30.798179,-83.555317,
Bulloch,City of Statesboro Belcher Branch Transfer Station,PBR-016-06TS,TS,50 East Main St.,Statesboro,GA,30458,Public,City of Statesboro,P.O. Box 348,Statesboro,GA,30458,Statesboro Public Works Department,Lakewood Rd.,Statesboro,GA,30458,912,764-5468,912,764-5279,32.48923,-81.78533,
Bulloch,"Allgreen Services, LLC",PBR-016-025COL;TS,TS,4795 US Hwy. 301 South,Register,GA,30452,Private Commercial,William Sullivan,115 Joe Underwood Rd.,Twin City,GA,30471,William Sullivan,,,,,478,763-4178,,,32.327815,-81.877345,
Bulloch,"Drake Disposal Services, Inc. Transfer Station",PBR-016-05TS,TS,US 301 and Akins-Anderson Rd.,Register,GA,30452,Private,,,,,,,,,,,,,,,32.3114,-81.8747,
Burke,Burke County,PBR-017-05TS,TS,804 Clarks Place Rd.,Waynesboro,GA,30830,Public,Burke County Board of Commissioners,P.O. Box 89,Waynesboro,GA,30830,Jesse Burke,804 Clarks Place Rd.,Waynesboro,GA,30830,706,554-2324,706,554-3124,33.08107,-81.96442,
Burke,"Sunbelt Medical Services, Inc. Transfer Station",PBR-017-03TS,TS,639 Vestal Rd.,Sardis,GA,30456,Private,"Sunbelt Medical Services, Inc.",P.O. Box 215,Sardis,GA,30456,,,,,,912,569-4641,,,32.94765,-81.75562,
Butts,Advanced Disposal Service - Jackson Transfer Station,PBR-018-08TS,TS,120 Rodeo Dr.,Jackson,GA,30233,Private,Advanced Disposal Services,,,,,,,,,,,,770,775-1001,33.28552,-83.92904,
Camden,Pet Cremation Services,PBR-020-08COL;TS,TS,616 N. Lee St.,Kingsland,GA,31548,Private Commercial,Mark Fiegl,616 N. Lee St.,Kingsland,GA,31548,Mark Fiegl,616 N. Lee St.,Kingsland,GA,31548,912,882-2900,912,882-2900,30.80789,-81.692283,
Carroll,Villa Rica Waste Transfer,PBR-022-16TS,TS,111 Fleet Dr.,Villa Rica,GA,30180,Private Commercial,Brian J. Albertson,1161 Sandhill Hickory Level Rd.,Carrollton,GA,30116,Shawnda Stone,P.O. Box 213,Winston,GA,30187,404,925-5390,770,577-5555,33.7426,-84.9447,
Carroll,Carroll County Solid Waste Management Authority,PBR-022-01TS,TS,439 Simonton Mill Rd.,Carrollton,GA,30117,Public,,,,,,,,,,,,,,,33.5507,-85.149,
Catoosa,Catoosa County Transfer Station,PBR-023-14TS,TS,755 Shope Ridge Rd.,Ringgold,GA,30736,Public,"Santek Enviromental of Georgia, Inc.","650 25th St. NW, Suite 100",Cleveland,TN,37311,Paul Long,755 Shope Ridge Rd.,Ringgold,GA,30736-7409,423,476-9160,706,937-4564,34.884728,-85.167131,
Chatham,"Republic Services, Inc. - Chatham County Transfer Station ",PBR-025-17TS,TS,84 Clifton Blvd.,Port Wentworth,GA,31407,Private Commercial,"Republic Services, Inc.",18500 N. Alllied Way,Phoenix,AZ,33301-5008,Guy Thompson,8619 Western Way,Jacksonville,FL,32256,954,769-2400,912,964-2211,32.14197,-81.17872,
Chattooga,White's Waste Transfer,PBR-027-06TS,TS,105 Stoleman Rd.,Trion,GA,30753,Private,White's Sanitation Service,150 McLeod St.,Lyerly,GA,30730,,,,,,706,734-7767,,,34.5707,-85.28835,
Chatham,"Safety Disposal Systems of Georgia, Inc.",PBR-025-26TS,TS,6043 Ogeehee Rd.,Savannah,GA,31419,Private,"Safety Disposal Systems of Georgia, Inc.",5940 Peachtree Rd.,Atlanta,GA,30341,,,,,,770,452-0011,,,31.994564,-81.263644,
Chatham,Waste Management of Savannah Transfer Station,PBR-025-37TS,TS,1809 US Hwy. 80 West,Garden City,GA,31408,Private,Waste Management,"1765 The Exchange, Suite 500",Atlanta,GA,30339,Burke Wall,1809 US Hwy. 80 West,Garden City,GA,31408,770,859-0800,912,965-0300,32.084005,-81.167793,
Chatham,East Coast Terminal Company,PBR-025-41TS,TS,1 Harbor St.,Savannah,GA,31401,Private,"Frank Peeples, Jr.",P.O. Box 1646,Savannah,GA,31404,,,,,,912,236-1531,,,32.076541,-81.071682,
Chatham,Atlantic Wood Waste Transfer Facility,PBR-025-46TS,TS,202 Oxnard Dr.,Port Wentworth,GA,31407,Private,"Atlantic Wood Industries, Inc.",P.O. Box 1608,Savannah,GA,31402,Ross Worsham,P.O. Box 1608,Savannah,GA,31402,912,964-1234,912,964-1234,32.14583,-81.14166,
Chatham,Georgia Recycling Transfer Station,PBR-025-48TTemporaryTS,TS,355 N. Lathrop Ave.,Savannah,GA,31415,Private Commercial,Savannah Steel Terminal - Georgia Recyclers,355 North Lathrop Ave.,Savannah,GA,31415,John Black,355 N. Lathrop Ave.,Savannah,GA,31415,912,232-8332,912,232-8332,32.09583,-81.11527,
Chattooga,Chattooga County Transfer Station,PBR-027-04TS,TS,118 Stockade Rd.,Summerville,GA,30747,Public,,,,,,,,,,,,,,,34.49003,-85.33664,
Cherokee,"Keep Cherokee Beautiful, Inc.",PBR-023-113TS,TS,470 Blalock Rd.,Canton,GA,30115,Public,"Keep Cherokee Beautiful, Inc.",470 Blalock Rd.,Canton,GA,30115,,,,,,770,517-7650,,,34.148927,-84.476479,
Cherokee,Waste Management - Woodstock Hauling,PBR-028-099TS,TS,6970 Main St.,Woodstock,GA,30188,Private,Waste Management,,,,,,,,,,404,794-6707,,,34.122524,-84.506444,
Clarke,Athens Paradise Boulevard Transfer Station ,PBR-029-46-A-TS,TS,Paradise Blvd.,Athens,GA,30601,Private Commercial,"Republic Services of Georgia, LP",550 Six Flags Pkwy.,Mableton,GA,30126,Mark Allen,550 Six Flags Pkwy.,Mableton,GA,30126,770,944-4963,770,944-4963,33.9842,-83.3947,
Clarke,Athens Hull Road Transfer Station,PBR-029-45TS,TS,400 Old Hull Rd.,Athens,GA,30606,Private Commercial,Lewis Cooper,1928 Executive Park Dr.,Statham,GA,30666,,,,,,770,725-7400,,,33.977911,-83.348728,
Clarke,Athens Transfer Station,PBR-029-46TS,TS,Maxey Blvd.,Athens,GA,30601,Private Commercial,"Republic Services of Georgia, LP",550 Six Flags Pkwy.,Mableton,GA,30126,Timothy Laraway,550 Six Flags Pkwy.,Mableton,GA,30129,770,944-4963,770,944-4963,33.9767,-83.3925,
Clarke,Let Us Compost Transfer Station,PBR-029-57TS,TS,695 King Ave.,Athens,GA,30606,Private Commercial,Kristen Baskin,695 King Ave.,Athens,GA,30606,Kristen Baskin,695 King Ave.,Athens,GA,30606,770,805-0113,404,805-0113,33.953683,-83.40256,Unable to verify operational status.
Clayton,"S.P. Petroleum Transporters, Inc.",PBR-031-38TS,TS,3854 Grant Rd.,Ellenwood,GA,30049,Private,Steven Paul,3854 Grant Rd.,Ellenwood,GA,30049,Steven Paul,3854 Grant Rd.,Ellenwood,GA,30049,404,361-0556,404,361-0556,33.646973,-84.303458,
Clayton,"MCF Environmental Services, Inc.",PBR-031-111TS,TS,4319 Tanners Church Rd.,Ellenwood,GA,30294,Private Commercial,"MCF Environmental Services, Inc.",4319 Tanners Church Rd.,Ellenwood,GA,30294,Robert Losundo,4319 Tanners Church Rd.,Ellenwood,GA,30294,770,593-9434,770,593-9434,33.638,-84.3119,
Clayton,"Biomed Southeast, Inc. Transfer Station",PBR-031-32TS,TS,"Airport Industrial Center, Unit 204, 4851 SR 85",Forest Park,GA,30297,Private,Gene Daniel,1941 Cement Plant Rd.,Nashville,TN,37208,Gene Daniel,1941 Cement Plant Rd.,Nashville,TN,37208,615,255-7361,615,255-7361,33.623555,-84.404397,
Clayton,"Stat Medical, Inc. Transfer Station",PBR-031-74TS,TS,"4851 GA Hwy. 85, Unit 212",Forest Park,GA,30050,Private,"Stat Medical, Inc.","4851 GA Hwy. 85, Unit 212",Forest Park,GA,30050,Jacki Jackson,"4851 GA Hwy. 85, Unit 212",Forest Park,GA,30050,404,766-0818,404,766-0818,33.623555,-84.404397,
Clayton,"Southern Refuse Services, Inc. Transfer Station",PBR-031-93TS,TS,327 Lamar Dr.,Forest Park,GA,30297,Private,"Waste Management, Inc.",P.O. Box 55,Emelle,AL,35459,Mike Gippert,5230 Jones Rd.,Forest Park,GA,30297,205,652-9721,404,608-2310,33.60894,-84.3701,
Cobb,"CAT Recovery Services, Inc. ","PBR-033-117COL,TS",TS,2110 Moon Station Dr.,Kennesaw,GA,30144,Private Commercial,Mark Logan,2110 Moon Station Dr.,Kennesaw,GA,30144,Mark Logan,2110 Moon Station Dr.,Kennesaw,GA,30144,678,797-1283,678,797-1283,34.690571,-84.991766,
Cobb,"Acworth Transfer Station (I Haul, Inc.)",PBR-033-82TS,TS,5497 N. Main St.,Acworth,GA,30101,Private,"Titan Enterprises, LLC",7550 Industrial Ct.,Alpharetta,GA,30004,Kyle Tripp,7550 Industrial Ct.,Alpharetta,GA,30004,678,762-1088,678,762-1088,34.07776,-84.69263,
Cobb,"Georgia Clean & Associates, LLC Biomecial Waste Transfer Station",PBR-033-119TS,TS,"4225 JVL Industrial Park Dr., Suite 501",Marietta,GA,30066,Private,Todd Reese/Gordy Powell,"4225 JVL Industrial Park Dr., Suite 501",Marietta,GA,30066,Todd Reese,1070 Falconcrest Dr.,Lawrenceville,GA,30043,404,456-3665,404,606-0134,34.0503,-84.519,
Cobb,"Consolidated Environmental Services, Inc.",PBR-033-14TS,TS,"1640 Albritton Dr., Suite 3",Kennesaw,GA,30144,Private,,,,,,Mark Warren,"1640 Albritton Dr., Suite 3",Kennesaw,GA,30144,,,770,425-3411,34.023434,-84.61549,
Cobb,"Dixie Waste Services, Inc.",PBR-033-24TS,TS,1339 Owenby Dr.,Marietta,GA,30066,Private,Robin D. Ray,1339 Owenby Dr.,Marietta,GA,30066,,P.O. Box 71596,Marietta,GA,30007,404,419-9170,404,419-9170,33.982134,-84.530105,
Cobb,Waste Management of Atlanta,PBR-033-67TS,TS,1161 Bells Ferry Rd.,Marietta,GA,30060,Private,Jeff Peckham,5025 Deen Rd.,Marietta,GA,30060,Waste Management of Atlanta,1161 Bells Ferry Rd.,Marietta,GA,30060,770,516-3313,770,516-3313,33.980692,-84.560601,
Cobb,Marble Mill Transfer Station,PBR-033-51TS,TS,325 Marble Mill Rd.,Marietta,GA,30060,Private,Allied Waste Services,325 Marble Mill Rd.,Marietts,GA,30060,,,,,,770,426-8132,,,33.977141,-84.566398,
Cobb,Marble Mill Recycling & Transfer Station,PBR-033-07TS,TS,317 Marble Mill Rd.,Marietta,GA,30060,Private,"Republic Services of Georgia, LP","110 SE 6th St., 28th Floor",Fort Lauderdale,FL,33301,,8607 Roberts Dr.,Atlanta,GA,30350,954,769-7217,404,640-2360,33.97651,-84.56458,
Cobb,Arbor Environmental Services Transfer Station,PBR-033-56TS,TS,400 Booth Rd.,Marietta,GA,30060,Private,Dennis Whitlow,110 Marietta Station Walk,Marietta,GA,30060,Dennis Whitlow,110 Marietta Station Walk,Marietta,GA,30060,404,419-9904,404,419-9904,33.922736,-84.564166,
Cobb,Advanced Disposal Services - Cobb County Transfer Station,PBR-033-118TS,TS,1897 County Services Pkwy.,Marietta,GA,30008,Private,,,,,,,,,,,,,,,33.906931,-84.582185,
Cobb,Advanced Disposal Services - Smyrna Transfer Station,PBR-033-109TS,TS,4696 South Cobb Dr.,Smyrna,GA,30080,Private Commercial,,,,,,,,,,,,,,,33.839677,-84.495807,
Cobb,"Tech 2100 Medical, Inc. Transfer Station",PBR-033-54TS,TS,"4859 Martin Ct. SE, Suite 10",Smyrna,GA,30082,Private,Dean Delawalla,"4859 Martin Ct. SE, Suite 10",Smyrna,GA,30082,Dean Delawalla,"4859 Martin Ct. SE, Suite 10",Smyrna,GA,30082,404,434-5200,404,434-5200,33.836493,-84.498517,
Cobb,Plant Atkinson Transfer Station,PBR-033-18TS,TS,207 Plant Atkinson Rd.,Smyrna,GA,30080,Private,Waste Management Disposal,P.O. Box 55,Emelle,AL,35459,Lee Nelson,207 Plant Atkinson Rd. SE,Smyrna,GA,30080,205,652-9721,404,351-8060,33.83435,-84.47266,
Cobb,"Chambers of Georgia, Inc. Transfer Station",PBR-033-61TS,TS,5545 Oakdale Rd.,Smyrna,GA,30082,Private,Greg Rosser,"3300 Highlands Pkwy., Suite 130",Smyrna,GA,30082,"Chambers of Georgia, Inc.",5545 Oakdale Rd.,Smyrna,GA,30082,404,438-7770,404,799-8304,33.825571,-84.496023,
Cobb,Bankhead C&D Transfer Station,PBR-033-104TS,TS,1490 Veterans Memorial Hwy.,Mableton,GA,30126,Private Commercial,"Siskey Hauling Co., Inc.",P.O. Box 506,Mableton,GA,30126,Matthew Roper,1490 Veterans Memorial Hwy.,Mableton,GA,30126,404,696-6316,404,,33.815325,-84.597827,
Cobb,"Evergreen Waste, LLC (biomedical and industrial waste) Collection and Transfer Station",PBR-033-102COL;TS,TS,1492 N. Blairs Bridge Rd.,Austell,GA,30168,Private Commercial,John Teague,1492 N. Blairs Bridge Rd.,Austell,GA,30168,"Evergreen Waste, LLC",1492 N. Blairs Bridge Rd.,Austell,GA,30168,770,739-5600,,,33.781124,-84.598455,
Cobb,Lee Industrial Transfer Station,PBR-033-52TS,TS,7140 Delta Circle,Austell,GA,30160,Private,"United Waste Services, Inc.",550 Six Flags Pkwy.,Mableton,GA,30059,Gary Stevens,550 Six Flags Pkwy.,Mableton,GA,30059,770,941-4363,770,941-4363,33.77827,-84.53975,
Cobb,"United Waste Services, Inc. / Lee Industrial Transfer Station",PBR-033-79TS,TS,7120 Delta Circle,Austell,GA,30160,Private,"Republic Services of Georgia, LP",P.O. Box 44066,Atlanta,GA,30336,United Waste Services,7120 Delta Circle,Austell,GA,30160,800,769-7218,770,948-5069,33.777332,-84.539568,
Coffee,Coffee County Transfer Station and Collection,"PBR-034-05TS,COL",TS,1219 Landfill Rd.,Douglas,GA,31533,Private Commercial,"Waste Industries, LLC","3301 Benson Dr., Suite 601",Raliegh,NC,27609,J. Corey Henderson,1219 Landfill Rd.,Douglas,GA,31533,919,325-3000,912,384-6001,31.570651,-82.895545,
Coffee,"Bio-Hazard Service, Inc. Biomedical Waste Transfer Station",PBR-024-08TS,TS,233 Cutter Rd,Douglas,GA,31535,Private Commercial,Thomas C. Griffin,233 Cutter Rd.,"Doublas
Ga
Douglas",GA,31535,Thomas C. Griffin,233 Cutter Rd.,Douglas,GA,31535,912,260-5707,912,260-5707,31.477373,-82.899418,
Colquitt,"CTV Recycling, Inc.",PBR-035-27TS,TS,305 Industrial Pkwy.,Moultrie,GA,31788,Private Commercial,"Randy Joe Cox, Sr.",550 Industrial Rd.,Moultrie,GA,31788,"Randy Joe Cox, Jr.",550 Industrial Rd.,Moultrie,GA,31788,229,985-1041,229,985-1041,31.182984,-83.743552,
Colquitt,"South Georgia Disposal, Inc.",PBR-035-024TS,TS,172 Adel Hwy.,Moultrie,GA,31768,Private,Superior Waste Services of Georgia,125 S. 84th St.,Milwaukee,WI,53214,Mark Morrisey,P.O. Box 3194,Valdosta,GA,31604,414,479-7800,912,244-2466,31.179908,-83.789063,
Colquitt,Colquitt County Board of Commissioners,PBR-035-17TS,TS,1816 Shade Murphy Rd.,Moultrie,GA,31768,Public,Colquitt County Board of Commissioners,P.O. Box 517,Moultrie,GA,31776-0517,Clint Perry,1816 Shade Murphy Rd.,Moultrie,GA,31768,229,616-7400,229,616-7475,31.09134,-83.84555,
Columbia,"Browning Ferris Industries of South Atlantic, Inc. Transfer Station",PBR-036-11TS,TS,683 Commerce Ct.,Evans,GA,30809,Private,Browning Ferris Industries,683 Commerce Ct.,Evans,GA,30809,Jay Katz,683 Commerce Ct.,Evans,GA,30809,706,860-7010,706,860-7010,33.548274,-82.121788,
Columbia,Advanced Disposal Services - Columbia Road Transfer Station,"PBR-036-19C0,TS",TS,5734 Columbia Rd.,Grovetown,GA,30813,Private,Advanced Disposal Services,"9995 Gate Pkwy., Suite 200",Jacksonville,FL,32246,Advanced Disposal Services,5734 Columbia Rd.,Grovetown,GA,30813,904,737-7900,706,790-7920,33.518766,-82.244775,
Coweta,"Republic Services, Inc. - Newnan Transfer Station",PBR-038-42TS,TS,129 Werz Industrial Blvd.,Newnan,GA,30263,Private,,,,,,,,,,,,,770,271-3575,33.400958,-84.763451,
Coweta,Coweta County,PBR-038-02TS,TS,164 Essie Mae Walker Rd.,Newnan,GA,30263,Public,Coweta County Environmental Management Department,101 Selt Rd.,Newnan,GA,30263,,164 Essie Walker Rd.,Newnan,GA,30263,770,254-3785,770,252-3748,33.36855,-84.85382,
Dade,Dade County Transfer Station,PBR-041-04TS,TS,598 Sunset Dr.,Trenton,GA,30752,Public,Dade County,P.O. Box 613,Trenton,GA,30752,,,,,,706,657-4625,,,34.87526,-85.50314,
Dawson,400 Convenience Center,PBR-042-12TS,TS,63 Daisy Dr.,Dawsonville,GA,30534,Public,,,,,,,,,,,,,,,34.363931,-84.049136,
Dawson,"Evans Garbage Service, Inc.",PBR-042-11TS,TS,27 Evans Circle,Dawsonville,GA,30534,Private Commercial,Jeff Evans,27 Evans Circle,Dawsonville,GA,30534,Jeff Evans,27 Evans Circle,Dawsonville,GA,30534,706,216-4232,706,216-4232,34.353801,-84.057145,
DeKalb,Advanced Disposal Services - Doraville Transfer Station,PBR-044-146TS,TS,2784 Woodwin Rd.,Doraville,GA,30360,Private,Charley (Rip) Thomson,P.O. Box 920365,Norcross,GA,30010,Charley (Rip) Thomson,P.O. Box 920365,Norcross,GA,30010,770,441-3037,770,441-3037,33.91743,-84.27469,
DeKalb,"Safety Disposal Systems of Georgia, Inc.",PBR-044-045TS,TS,5940 Peachtree Rd.,Atlanta,GA,30341,Private,J.R. Watson,5940 Peachtree Rd.,Atlanta,GA,30341,Ron Ceacal,100 Nix St.,Hampton,SC,29924,404,452-0011,803,943-5176,33.904493,-84.290128,
DeKalb,"Advantra, Inc. Biomedical Waste Collection and Transfer","PBR-044-165COL,TS",TS,"3367 W. Hospital Ave., Suite I",Atlanta,GA,30341,Private Commercial,"Advantra, Inc.",P.O. Box 467021,Atlanta,GA,401146,Jamie Reid,"5200 Peachtree Rd., Suite 3104",Chamblee,GA,30541,888,454-1857,888,454-1857,33.88853,-84.294669,
DeKalb,Clean Tech,PBR-044-145TS,TS,1806 Montreal Ct.,Atlanta,GA,30084,Private,H. Lee Creecy,1806 Montreal Ct.,Atlanta,GA,30084,Lee Creecy,1806 Montreal Ct.,Atlanta,GA,30084,404,932-8770,404,932-8770,33.832811,-84.251816,
DeKalb,Rogers Lake Road Transfer Station,PBR-044-143TS,TS,1790 Rogers Lake Rd.,Lithonia,GA,30058,Private,,,,,,,,,,,,,,,33.740614,-84.101991,
DeKalb,Advanced Disposal Services - Lithonia Transfer Station,PBR-044-144TS,TS,7040 Maddox Rd.,Lithonia,GA,30058,Private,Advanced Disposal Services,8880 Old Federal Hwy.,All Ground,GA,30107,"Walter H. Hall, Jr.",7915 Baymeadows Way,Jacksonville,FL,32256,678,341-7140,904,737-7900,33.73808,-84.10103,
DeKalb,"MCF Systems Atlanta, Inc.",PBR-044-141TS,TS,5351 Snapfinger Woods Dr.,Decatur,GA,30035,Private,Charles Mendez,5353 Snapfinger Woods Dr.,Decatur,GA,30035,Kevin Hightower,5353 Snapfinger Woods Dr.,Decatur,GA,30035,770,593-9434,770,593-9434,33.709309,-84.170754,
DeKalb,"Incendrere, Inc. Transfer Station",PBR-044-087TS,TS,5075 Minola Dr.,Lithonia,GA,30038,Private,"Robert L. Earl, Jr.",3710 Indian River Rd.,Chesapeake,VA,23325,Robert Earl,3710 Indian River Rd.,Chesapeake,VA,23325,804,424-7710,804,424-7710,33.700032,-84.181778,
DeKalb,"CFM Environmental Services, Inc.",PBR-044-150TS,TS,1235 Constitution Rd.,Atlanta,GA,30316,Private,Raymond L. Martin,3712 John Carrol Dr.,Decatur,GA,30034,Raymond L. Martin,3885 Brookwood Ct.,Decatur,GA,30034,770,622-1290,770,987-2154,33.688039,-84.33977,Unable to verify operational status.
DeKalb,Arrow Transfer Station,PBR-044-161TS,TS,4039 Bonsal Rd.,Conley,GA,30288,Private,Charles Thomson,1834 McJenkin Dr.,Doraville,GA,30345,,,,,,843,991-2066,770,441-3037,33.662745,-84.329037,
Dodge,Dodge County Transfer Station,PBR-045-04TS,TS,"CR 274, Dodge Ave.",Eastman,GA,31023,Public,,,,,,,,,,,,,,,32.187013,-83.163285,
Dougherty,Hall-Ing Refuse Company,PBR-047-24TS,TS,1515 Pecan Lane,Albany,GA,31705,Private,Allied Waste Industries,15880 N. Greenway Hayden Loop,Scottsdale,AZ,85260,Kerry Nelson,P.O. Box 50003,Albany,GA,31705,,,912,432-0760,31.540826,-84.095706,
Dougherty,Albany Transfer Station ,PBR-047-32TS,TS,1532 S. Mock Rd.,Albany,GA,31703,Private Commercial,Advanced Disposal Services,"90 Fort Wade Rd., Suite 300",Ponte Vedra,FL,32081,Charles N. Gray,"90 Fort Wade Rd., Suite 300",Ponte Vedra,FL,32081,904,737-7900,904,737-7900,31.540194,-84.098127,
Douglas,Douglas County Transfer Station,PBR-048-30TS,TS,1730 County Services Rd.,Douglasville,GA,30134,Public,,,,,,,,,,,,,770,920-3133,33.911021,-84.582066,
Douglas,Westside Transfer Station,PBR-048-29TS,TS,7930 W. Bankhead Hwy.,Douglasville,GA,30134,Private,"Waste Industries USA, Inc.",7930 W. Bankhead Hwy.,Douglasville,GA,30134,,,,,,770,947-2577,,,33.74035,-84.78419,
Early,City of Blakely Transfer Station,PBR-049-04TS,TS,43 Malone Rd.,Blakely,GA,31723,Public,,,,,,,,,,,,,,,31.401,-84.929903,
Emanuel,Emanuel County Transfer Station,PBR-053-07TS,TS,SR 297 / Nunez Rd.,Swainsboro,GA,30401,Public,,,,,,,,,,,,,,,32.514284,-82.334199,
Evans,Evans County Transfer Station (Custom Waste),PBR-054-11TS,TS,752 Landfill Rd.,Claxton,GA,30417,Private,Evans County Board of Commissioners,3 Freeman St.,Claxton,GA,30417,Forrest Conder,3475 Bill Hodges Rd.,Claxton,GA,30417,912,739-1141,912,739-7122,32.135551,-81.921465,
Fannin,"Appalachian Waste Systems, LLC - Fannin County Transfer Station",PBR-055-12TS,TS,530 Tom Boyd Rd.,Blue Ridge,GA,30513,Private,Rudy Roach,P.O. Box 612,Hiawassee,GA,30546,Rudy Roach,P.O. Box 612,Hiawassee,GA,30546,706,896-1575,706,896-1575,34.89892,-84.355613,
Fannin,Advanced Disposal Services - Blue Ridge Transfer Station,PBR-055-15TS,TS,10169 Lakewood Hwy.,Mineral Bluff,GA,30559,Private Commercial,Advanced Disposal Services,"7915 Baymeadows Way, Suite 300",Jacksonville,FL,32256,Charles C. Appleby,"7915 Baymeadows Way, Suite 300",Jacksonville,FL,32256,904,737-7900,904,737-7900,34.896845,-84.263089,
Fannin,"Silver Star Environmental Services, LLC d/b/a Sugar Creek C&D Disposal Faciity Transfer Station (Yellow Box Containers, Inc.)",PBR-055-14TS,TS,79 Jeff's Way (off 302 Tom Boyd Rd.),Blue Ridge,GA,30513,Private Commercial,"Silver Star Envionrmental Services, LLC",4696 Oakdale Rd.,Smyrna,GA,30080,Leon Watkins,4696 Oakdale Rd.,Smyrna,GA,30090,770,319-6421,706,273-8858,34.8864,-84.3531,
Fannin,"North GA Waste, LLC","PBR-055-17COL,TS",TS,114 Forge Mill Rd.,Morganton,GA,30560,Private Commercial,Daniel G. Shuler,160 Hells Hollow Rd.,Blue Ridge,GA,30513,Holly H. Shuller,160 Hells Hollow Rd.,Blue Ridge,GA,30513,706,900-1010,706,9001010,34.886381,-84.259921,
Fayette,EPI,PBR-056-295TS,TS,120 Clover Lane,Tyrone,GA,30290,Private,,,,,,,,,,,,,,,33.442891,-84.610255,Unable to verify operational status.
Fayette,Southern States - Fayette,PBR-056-001TS,TS,221 First Manassas Mile Rd.,Fayetteville,GA,30214,Private,Fayette County Engineering Division,"140 Stonewall Ave. West, Suite 203",Fayetteville,GA,30214,"Waste Management, Inc.",P.O. Box 55,Emelle,AL,35459,770,305-5410,205,652-9721,33.437538,-84.478945,
Fayette,"Crews Environmental, Inc.",PBR-056-298TS,TS,252 First Manasses Mile Rd.,Fayetteville,GA,30214,Private,,,,,,,,,,,,,,,33.437538,-84.478945,
Fayette,"Pye Barker Green Environment, LLC","PBR-056-301COL,TS",TS,"Landlot 42, District 6",Peachtree,GA,30267,Private Commercial,,,,,,,,,,,,,,,33.356899,-84.554782,
Floyd,Rome Transfer Station,PBR-064-29TS,TS,"Eastside of SR 53, 0.4 miles south of West Hermitage Rd.",Rome,GA,30161,Private Commercial,,,,,,,,,,,,,,,34.321223,-85.102454,
Forsyth,"Aftermath Services, LLC Biomedical Waste Transfer Station",PBR-058-341TS,TS,"135 Enterprise Dr., Suite E",Cumming,GA,30040,Private Commercial,"Aftermath Services, LLC","75 Executive Dr., Suite 200",Aurora,IL,60504,Patricia Heinle,"75 Executive Dr., Suite 200",Aurora,IL,60504,630,551-0735,630,551-0735,34.20732,-84.140193,
Forsyth,Forsyth County Board of Commissioners,PBR-058-167TS,TS,110 E. Main St.,Cumming,GA,30040,Public,,,,,,,,,,,,,,,34.207315,-84.138649,Unable to verify operational status.
Forsyth,Mauldin Drive Transfer Station,PBR-058-011TS,TS,175 Mauldin Dr.,Alpharetta,GA,30004,Private,,,,,,,,,,,,,770,619-9658,34.157363,-84.251196,
Forsyth,"Waste Research and Recovery, Inc. Transfer Station",PBR-058-009TS,TS,"4100 Nine-Macfarland Dr., Suite D",Alpharetta,GA,30201,Private,,,,,,,,,,,,,,,34.135985,-84.256532,Unable to verify operational status.
Forsyth,Tomahawk Waste Management,PBR-058-172TS,TS,744 McFarland Rd.,Alpharetta,GA,30338,Private,,,,,,,,,,,,,,,34.135985,-84.256532,Unable to verify operational status.
Forsyth,"Vision Transfer, LLC",PBR-058-176TS,TS,3711 Trammell Rd.,Cumming,GA,30131,Private,,,,,,,,,,,,,,,34.131241,-84.130682,Unable to verify operational status.
Fulton,Industrial Environmental Technologies Corp.,PBR-060-210TS,TS,"1065 Nine North Dr., Suite B",Alpharetta,GA,30004,Private,Michael John Smith,"1065 Nine North Dr., Suite B",Alpharetta,GA,30004,Michael John Smith,"1065 Nine North Dr., Suite B",Alpharetta,GA,30004,770,329-2175,770,329-2175,34.087897,-84.347751,
Fulton,Advanced Disposal Services - Roswell Transfer Station,PBR-060-118TS-A,TS,1802 Hembree Rd.,Roswell,GA,30201,Private,Mark Allen,967 Carl-Bethlehem Rd.,Winder,GA,30680,Mark Allen,967 Carl-Bethlehem Rd.,Winder,GA,30680,770,867-2499,770,867-2499,34.0609,-84.3116,
Fulton,Alpharetta Transfer Station,PBR-060-238TS,TS,11465 Maxwell Rd.,Alpharetta,GA,30004,Private Commercial,"SRS Holding, LLC","1351 Oakbrook Dr., #180",Norcross,GA,30093,Michael R. Ayers,"1351 Oakbrook Dr., #180",Norcross,GA,30093,770,447-1154,770,447-1154,34.058642,-84.301431,
Fulton,Apps of GA,PBR-060-204TS,TS,"600 Houze Way, Suite C-2",Roswell,GA,30076,Private,Jim Price,"600 Houze Way, Suite C-2",Roswell,GA,30076,Dennis Sturgill,"600 Houze Way, Suite C-2",Roswell,GA,30076,770,642-1195,770,642-1195,34.047479,-84.342725,
Fulton,Equis Atlanta T&P,PBR-060-202TS,TS,1470 Great Southwest Pkwy.,Atlanta,GA,30336,Private,"EQ Holding Company, Inc.",36255 Michigan Ave.,Wayne,GA,48184,Lee Starnes,1470 Great Southwest Pkwy.,Atlanta,GA,30336,734,329-8000,404,472-0410,33.744086,-84.558151,
Fulton,"Micro-Med of Georgia, Inc.",PBR-060-097TS,TS,720 Great Southwest Pkwy.,Atlanta,GA,30366,Private,,,,,,,,,,,,,,,33.744057,-84.559333,Unable to verify operational status.
Fulton,"Biocor, Inc.",PBR-060-101TS,TS,580 Whitehall St.,Atlanta,GA,30301,Private,,,,,,,,,,,,,,,33.742727,-84.406189,Unable to verify operational status.
Fulton,"Evergreen Waste, LLC MSW and Industrial Waste Collection and Transfer Station","PBR-060-252TS,COL",TS,650 Fairburn Rd. SW,Atlanta,GA,30131,Private Commercial,"DNT Environmental Services, Inc.",650 Fairburn Rd. SW,Atlanta,GA,30331,John Teague,650 Fairburn Rd.,Atlanta,GA,30331,770,739-5600,770,739-5600,33.737382,-84.507324,
Fulton,EQ Industrial Services,PBR-060-221TS,TS,5600 Fulton Industrial Blvd. SW,Atlanta,GA,30336,Private,"EQ Holding Company, Inc.",36255 Michigan Ave.,Wayne,GA,48184,John Teague,5600 Fulton Industrial Blvd. SW,Atlanta,GA,30336,734,329-8000,404,494-3520,33.733851,-84.567284,
Fulton,"Mindis Treatment Services, Inc.",PBR-060-105TS,TS,460 Sawtell Ave.,Atlanta,GA,30315,Private,,,,,,,,,,,,,,,33.710408,-84.375256,Unable to verify operational status.
Fulton,Gateway Transfer Station,PBR-060-207TS,TS,1625 Westgate Pkwy.,Atlanta,GA,30336,Private,"SRS, Inc.",3530 Waters Cove Way,Alpharetta,GA,30022,Michael Ayers,3530 Waters Cove Way,Alpharetta,GA,30022,770,754-5000,770,754-5000,33.708712,-84.595359,
Fulton,"Big E Environmental (Oakdale Environmental, Inc.)",PBR-060-239TS,TS,2250 Sylvan Rd.,East Point,GA,30344,Private Commercial,"Ezell Developments, LLC",825 Warner St. SW,Atlanta,GA,30310,Marshall Ezell,825 Warner St. SW,Atlanta,GA,30310,404,817-0517,,,33.693388,-84.4184,
Fulton,East Point Transfer Station,PBR-060-122TS,TS,3125 S. Martin St.,East Point,GA,30344,Public,"BFI Transfer Systems of Georgia, LLC",325 Marble Mill Rd.,Marietta,GA,30060,Jeff Clem,3045 Donald Lee Hollowell Pkwy.,Atlanta,GA,30318,770,514-2910,404,792-2660,33.6687,-84.4307,
Fulton,"Latham Home Sanitation Co., Inc.",PBR-060-012TS,TS,3070 Roosevelt Hwy.,College Park,GA,30349,Private,"Latham Home Sanitation Co., Inc.",3070 Roosevelt Hwy.,College Park,GA,30349,Ric Jarvis,P.O. Box 398,Red Oak,GA,30278,770,972-0999,770,972-0999,33.621769,-84.490889,
Fulton,Advanced Disposal Services - Welcome All Transfer Station,PBR-060-216TS,TS,5225 Welcome All Rd.,College Park,GA,30349,Private,Ric Jarvis,P.O. Box 1770,Red Oak,GA,30272,Ric Jarvis,P.O. Box 1770,Red Oak,GA,30270,770,972-2715,770,972-2715,33.6131,-84.52542,
Fulton,"Soful, LLC Transfer Station",PBR-060-223TS,TS,"5700 Roosevelt Hwy., LL 134",Fairburn,GA,30213,Private,Charles G. Bartenfeld,"3580 Piedmont Dr., Suite 215",Atlanta,GA,30305,Charles G. Bartenfeld,"3580 Piedmont Dr., Suite 215",Atlanta,GA,30305,404,760-0067,404,760-0067,33.55558,-84.594735,
Fulton,"CLM Sanitation, LLC d/b/a Fairburn Transfer Station - Waste Industries",PBR-060-250TS,TS,609 Bohannon,Fairburn,GA,30213,Private Commercial,Lukas Johnson,610 Bohannon Rd.,Fairburn,GA,30213,Lukas Johnson,610 Bohannon Rd.,Fairburn,GA,30213,770,774-7014,,,33.548373,-84.593157,
Fulton,Philip Services Corp. / Allwaste Recovery System,PBR-060-212TS,TS,8025 Spence Rd.,Fairburn,GA,30213,Private Commercial,Philip Services Corp.,"5151 San Felipe, Suite 100",Houston,TX,77056,Colin D. Ramsey,8025 Spence Rd.,Fairburn,GA,30213,713,623-8777,770,969-7886,33.534963,-84.54954,
Gilmer,Advanced Disposal Services - Ellijay Transfer Station,PBR-061-03TS,TS,114 Progress Rd.,Ellijay,GA,30540,Private,Charles Appleby,"7915 Baymeadows Way, Suite 300",Jacksonville,FL,32256,Charles Appleby,"7915 Baymeadows Way, Suite 300",Jacksonville,FL,32256,904,737-7900,,,34.6645,-84.49925,
Glynn,Chapman Waste Disposal Transfer Station,PBR-063-17TS,TS,6019 Habersham St. Ext.,Brunswick,GA,31520,Private,,,,,,Gary Williams,6019 Habersham St.,Brunswick,GA,31520,,,912,267-1345,31.20527,-81.50041,
Glynn,"Liberty Roll-offs, Inc.",PBR-063-35TS,TS,5032 Habersham St.,Brusnwick,GA,31520,Private Commercial,Liberty Rentals,3453 Hwy. 17 South,Brunswick,GA,31523,Devant Wainwright,3453 Hwy. 17 South,Brunswick,GA,31523,912,466-9144,912,466-9144,31.194639,-81.49597,
Glynn,Callaway-130 Biomedical Waste Transfer Station,PBR-063-37TS,TS,1201 Cedar St.,Brunswick,GA,31520,Private Commercial,Jack C. Calloway,242 Harbor Pointe Dr.,Brunswick,GA,31523,Jack C. Callaway,242 Harbor Pointe Dr.,Brunswick,GA,31523,912,577-6050,912,577-6050,31.186841,-81.500127,
Glynn,"Liberty Roll-offs, Inc.",PBR-063-18TS,TS,1400 4th Ave.,Brunswick,GA,31520,Private Commercial,,,,,,,,,,,,,,,31.134296,-81.482253,
Greene,Advanced Disposal Services - Carey Station Transfer Station,PBR-066-011TS,TS,2870 Carey Station Rd.,Greensboro,GA,30642,Public,Advanced Disposal Services,"7915 Baymeadows Way, Suite 300",Jacksonville,FL,32256,"Walter H. Hall, Jr.","7915 Baymeadows Way, Suite 300",Jacksonville,FL,32256,904,737-7900,904,737-7900,33.540011,-83.256821,
Gwinnett,Rest Haven Transfer Station,PBR-067-059TS,TS,"Tract #5, containing 11.612 acres, more or less, Gwinnett County",Rest Haven,GA,30518,Private,Thomas E. Robinson,4321 S. Lee Ct.,Buford,GA,30518,Thomas E. Robinson,4321 S. Lee Ct.,Buford,GA,30518,770,402-2316,770,402-2316,34.101193,-84.00125,Unable to verify operational status.
Gwinnett,Ruth W. Pruitt,PBR-067-078TS,TS,2492 Hwy. 324,Buford,GA,30518,Private,,,,,,,,,,,,,,,34.059432,-83.942475,Unable to verify operational status.
Gwinnett,"Full Circle Restoration & Construction Services, Inc. Biomedical Waste Transfer Station",PBR-067-803TS,TS,4325 River Green Pkwy.,Duluth,GA,30096,Private Commercial,"Full Service Restoration & Construction Services, Inc.",4325 River Green Pkwy.,Cumming,GA,30096,Orlando Ojeda,4325 River Green Pkwy.,Cumming,GA,30096,770,560-7642,770,232-9797,34.017793,-84.167107,
Gwinnett,Lawrenceville Transfer Center,PBR-067-780TS,TS,2316 Lawrence St.,East Point,GA,30344,Public,,2316 Lawrence St.,East Point,GA,30344-2525,,,,,,770,822-5187,,,33.96877,-83.96762,
Gwinnett,Advanced Disposal Services - Gwinnett Transfer Station,PBR-067-787TS,TS,535 Seaboard Industrial Dr.,Lawrenceville,GA,30126,Private Commercial,Advanced Disposal Services,"7915 Baymeadows Way, Suite 300",Jacksonville,FL,32256,"Walter H. Hall, Jr.","7915 Baymeadows Way, Suite 300",Jacksonville,FL,904,904,737-7900,770,737-7900,33.96833,-83.9675,
Gwinnett,Waste Management - Lawrenceville Transfer Station,PBR-067-784TS,TS,350 Maltbie Industrial Dr.,Lawrenceville,GA,30046,Private Commercial,,,,,,"Waste Management, Inc.",P.O. Box 55,Emelle,AL,35459,205,652-9721,770,513-2442,33.96237,-83.995498,
Gwinnett,"Scientific Waste Systems, Inc.",PBR-067-138TS,TS,2900 Cole Court,Norcross,GA,30071,Private,,,,,,,,,,,,,,,33.950998,-84.204013,Unable to verify operational status.
Gwinnett,"Percy Moore d/b/a Rivertrace Transport, Inc.",PBR-067-017TS,TS,2600 Indian Trail North,Norcross,GA,30091,Private,,,,,,,,,,,,,,,33.936538,-84.178003,Unable to verify operational status.
Gwinnett,BJ Sanitary Landfill & Recycling Center,PBR-067-168TS,TS,6461 Corley Rd.,Norcross,GA,30071,Private,,,,,,,,,,,,,,,33.934115,-84.231845,
Gwinnett,Advanced Disposal Services - Doraville Transfer Station,PBR-067-781TS,TS,2784 Woodwin Rd.,Doraville,GA,30360,Private Commercial,,,,,,,,,,,,,,,33.917871,-84.274644,
Gwinnett,"Univar USA, Inc.",PBR-067-799COL,TS,2145 Skyland Ct.,Norcross,GA,30071,Private,,,,,,,,,,,,,,,33.913865,-84.228017,
Gwinnett,Snellville Recycling Center,PBR-067-766TS,TS,1000 East Park Dr.,Snellville,GA,30078,Public,,,,,,,,,,,,,,,33.843241,-84.012857,Unable to verify operational status.
Hall,Biotrama Transfer Station (biomedical waste),PBR-069-50TS,TS,999 Chestnut St.,Gainesville,GA,30501,Private Commercial,Ryan Sawyer,999 Chestnut St.,Gainesville,GA,30601,Ryan Sawyer,999 Chestnut St.,Gainesville,GA,30501,866,435-7704,866,435-7704,34.289513,-83.813797,
Hall,Republic Services of Georgia Monroe Drive Transfer Station,PBR-069-44TS,TS,2381 Monroe Dr.,Gainesville,GA,30501,Private Commercial,"Republic Services of Georgia, LP",550 Six Flags Pkwy.,Mabelton,GA,30126,Mark Allen,967 Carl Bethlehem Rd.,Winder,GA,30680,770,944-4967,770,867-2499,34.270356,-83.807646,
Hall,Advanced Disposal Services - Hall County Transfer Station,PBR-069-49TS,TS,1 Ruby St.,Gainesville,GA,30501,Private Commercial,Advanced Disposal Services,"7915 Baymeadows Way, Suite 300",Jacksonville,FL,32256,Charles C. Appleby,"7915 Baymeadows Way, Suite 300",Jacksonville,FL,32256,904,737-7900,904,737-7900,34.26944,-83.83833,
Hall,"BDR, Inc.",PBR-069-04TS,TS,1535 Fullenwider Rd.,Gainesville,GA,30507,Private,,,,,,,,,,,,,,,34.257443,-83.804465,Unable to verify operational status.
Hall,Candler Road Landfill Transfer Station,PBR-069-39TS,TS,1700 Oakbrook Dr.,Gainesville,GA,30507,Private,,,,,,,,,,,,,,,34.248605,-83.797663,Unable to verify operational status.
Hall,Progressive Medical Concepts Transfer Station,PBR-069-57TS,TS,"5020 BU Bowman Dr., Suite 600",Buford,GA,30518,Private Commercial,Scott Keiser,4460 Bogan Center Dr.,Buford,GA,30519,Scott Keiser,4460 Bogan Center Dr.,Buford,GA,30519,770,354-9362,770,354-9362,34.1462,-83.9539,
Haralson,Haralson County Solid Waste Transfer Station,PBR-071-02TS,TS,Landfill Rd.,Buchanan,GA,30113,Public,Haralson County Solid Waste Management Authority,4485 Georgia Hwy. 120,Buchanan,GA,30113,Amos Sparks,P.O. Box 489,Buchanan,GA,30113,770,646-2002,770,646-2002,32.746804,-84.816818,
Harris,Harris County Transfer Station,PBR-072-02TS,TS,4070 Barnes Mill Rd.,Hamilton,GA,31811,Public,,,,,,,,,,,,,,,34.746965,-84.811517,
Hart,Hart County Board of Commissioners Transfer Station,PBR-073-04TS,TS,2318 Hickory Crossing Rd.,Hartwell,GA,30643,Public,Hart County,800 Chandler St.,Hartwell,GA,30643,,,,,,706,376-2024,706,376-7333,34.307258,-82.9364,
Henry,"Landfills of Georgia, Inc.",PBR-075-24TS,TS,141 Railroad St.,Stockbridge,GA,30281,Private,,,,,,Gary W. Grizzell,490 Seabolt Rd.,Locust Grove,GA,30248,,,770,506-0016,33.53674,-84.22779,
Henry,Henry County Regional Solid Waste Management Authority,PBR-075-28TS,TS,141 Railroad St.,Stockbridge,GA,30281,Public,,,,,,,,,,,,,,,33.536543,-84.556368,Unable to verify operational status.
Henry,"S&B Rolloff, Inc.",PBR-075-36COL;TS,TS,6995 Hwy. 42 South,Locust Grove,GA,30248,Private Commercial,"S&B Rolloff, Inc.",6995 Hwy. 42 South,Locust Grove,GA,30248,Dennis Slade,1180 Peeksville Rd.,Locust Grove,GA,30248,770,914-7769,770,914-7769,33.320393,-84.054373,
Houston,Warner Robins Transfer Station,PBR-076-25TS,TS,155 Story Rd.,Warner Robins,GA,31093,Private,"Trans Waste Services, LLC",1723 N. Washington St.,Albany,GA,31701,Mike Powell,1723 N. Washington St.,Albany,GA,31701,229,888-2500,229,8882500,32.6585,-83.6228,
Jackson,Jackson County Board of Commissioners Transfer Station,PBR-078-09TS,TS,100 Landfill Dr.,Jefferson,GA,30549,Public,Jackson County Board of Commissioners,67 Athens St.,Jefferson,GA,30549,Tom Page,16 Hendrix Dr.,Jefferson,GA,30549,706,367-6312,706,367-7709,34.14568,-83.55345,
Jackson,Garbage Hound Sanitation,PBR-078-019TS,TS,759 Hwy. 60,Hoschton,GA,30548,Private,Lemuel F. Hayes,P.O. Box 103,Braselton,GA,30517,Lemuel F. Hayes,751 Hwy. 60,Hoschton,GA,30548,706,6582679,706,6582679,34.126397,-83.717723,
Jeff Davis,Jeff Davis County Consolidated Government Transfer Station,PBR-080-04TS,TS,65 Farmers St.,Hazlehurst,GA,31539,Private,City of Hazelhurst,P.O. Box 519,Hazlehurst,GA,31539,Wayne Fountain,P.O. Box 519,Hazelhurst,GA,31539,912,375-6650,912,375-6680,31.862506,-82.579264,
Jenkins,Jenkins County Landfill and Transfer Station,PBR-082-01TS,TS,3199 Paramore Hill Rd.,Millen,GA,30442,Public,Jenkins County Board of Commissioners,P.O. Box 797,Millen,GA,30442,Al Knight,P.O. Box 797,Millen,GA,30442,478,982-2563,478,982-2563,32.794333,-81.914309,
Liberty,Liberty County Transfer Station,PBR-089-11TS,TS,625 Rogers Pasture Rd.,Fleming,GA,31309,Public,Liberty County Board of Commissioners,P.O. Box 829,Hinesville,GA,31310,Dave Sapp,625 Rogers Pasture Rd.,Fleming,GA,31309,912,884-5353,912,884-5353,31.85988,-81.46745,
Lowndes,Valdosta Waste Services d/b/a Allgreen Services,PBR-092-43TS,TS,6751 Union Rd.,Hahira,GA,31632,Private,"Valdosta Waste Services, LLC d/b/a Allgreen Services",115 Joe Underwood Rd.,Twin City,GA,30471,William Sullivan,115 Joe Underwood Rd.,Twin City,GA,30471,478,763-4178,,,30.979594,-83.380132,
Lumpkin,Tritt Transfer Station,PBR-093-07TS,TS,75 Cleveland Hwy.,Murrayville,GA,30564,Private,,,,,,,,,,,,,,,34.522177,-83.885628,Unable to verify operational status.
Lumpkin,400 North Landfill Waste Transfer Station,PBR-093-05TS,TS,2059 Brunt Stand Rd.,Dawsonville,GA,30534,Public,,,,,,,,,,,,,,,34.452834,-83.99152,
McDuffie,City of Thomson Transfer Station,PBR-097-04TS,TS,863 Augusta Rd.,Thomson,GA,30824,Public,,,,,,,,,,,,,404,595-1781,33.45919,-82.48492,
McDuffie,"Georgia Disposal and Recycling, Inc. Transfer Station",PBR-097-06TS,TS,148 Industrial Rd. NE,Thomson,GA,30824,Private,,,,,,,,,,,,,706,597-0329,33.458524,-82.522675,
McDuffie,McDuffie County Transfer Station,PBR-097-08TS,TS,Mesena Rd.,Thomson,GA,30824,Public,McDuffie County,514 Tankersley Dr.,Thomson,GA,30824,Don Clausen,514 Tankersley Dr.,Thomson,GA,30824,706,595-2374,706,595-2374,33.44773,-82.57456,
Meriwether,Bo's Rolloffs,PBR-099-011TS,TS,147 Mary's Mountain Rd.,Manchester,GA,31816,Private,Mel Buffington,P.O. Box 801,Shiloh,GA,30826,Mel Buffington,,,,,706,249-1916,,,32.859854,-84.619925,
Mitchell,"Seminole Sanitation Services, Inc.",PBR-101-10TS,TS,4433 Skyline Dr.,Camilla,GA,31730,Private Commercial,,,,,,,,,,,,,,,31.23459,-84.226131,
Mitchell,"Griffin Waste Service, LLC",PBR-101-12TS,TS,Hwy. 319,Pelham,GA,31779,Private,Kevin Griffin,Hwy. 319,Pelham,GA,31779,,,,,,229,794-2954,,,31.14497,-84.14272,
Monroe,Monroe County Board of Commissioners Transfer Station,PBR-102-06TS,TS,2525 Shi Rd.,Macon,GA,31201,Public,,,,,,,,,,,,,,,32.908922,-83.902749,Unable to verify operational status.
Monroe,Monroe County Board of Commissioners Inert Landfill,PBR-102-07TS,TS,2228 English Rd.,Forsyth,GA,31029,Public,,,,,,,,,,,,,,,33.11517,-83.993595,Unable to verify operational status.
Monroe,Monroe County Board of Commissioners,PBR-102-14TS,TS,43 Blount Rd.,Forsyth,GA,31029,Public,,,,,,,,,,,,,,,33.177247,-83.96439,Unable to verify operational status.
Morgan,Morgan County Transfer Station,PBR-104-07TS,TS,2480 Athens Hwy.,Madison,GA,30650,Public,Morgan County,,,,,Asbury Williams,2480 Athens Hwy.,Madison,GA,,,,706,342-5075,33.631648,-83.453097,
Morgan,Advanced Disposal Services - Madison Transfer Station,PBR-104-08TS,TS,1240 Lions Club Rd.,Madison,GA,30650,Private,,,,,,,,,,,,,,,33.563871,-83.486596,
Muscogee,Advanced Disposal Services -Columbus Transfer Station,PBR-106-14TS,TS,2015 Veterans Pkwy.,Columbus,GA,31904,Private Commercial,Advanced Disposal Services,"90 Fort Wade Rd., Suite 300",Ponte Vedra,FL,32081,Charles N. Gray,"90 Fort Wade Rd., Suite 300",Ponte Vedra,FL,32081,904,737-7900,904,737-7900,32.48268,-84.98645,
Muscogee,"Med Away Disposal Services, Inc. Transfer Station",PBR-106-23TS,TS,"3715 First Ave., Bldg. 5A",Columbus,GA,31904,Private Commercial,"John O. Barwick, III",8233-9 Fox Creek Dr.,Midland,GA,31820,"John O. Barwick, III",8233-9 Fox Creek Dr.,Micland,GA,31820,706,332-4888,706,332-4885,32.460976,-84.987709,
Newton,"Biotran, Inc.",PBR-107-21TS,TS,636 Moore St.,Oxford,GA,30054,Private Commercial,Terry Barnett,55-C Oxford Business Pkwy.,Oxford,GA,30054,Terry Barnett,3260 Hwy. 78,Snellville,GA,30078,770,570-9831,,,33.618705,-83.882564,
Newton,Harris Transfer Station,PBR-107-17TS,TS,8163 Old Atlanta Hwy.,Covington,GA,30014,Private,Jimmy Harris,9101 Old Atlanta Hwy.,Covington,GA,30014,Jimmy Harris,9101 Old Atlanta Hwy.,Covington,GA,30014,770,786-3585,770,786-3585,33.609821,-83.878802,
Newton,Covington Mills Transfer Station,PBR-107-13TS,TS,6229 Turner St.,Covington,GA,30014,Private,,,,,,,,,,,,,,,33.600787,-83.875886,Unable to verify operational status.
Newton,LB Recycling and Waste Services,PBR-107-08TS,TS,8194 Washington St. SW,Covington,GA,30014,Private,,,,,,,,,,,,,770,786-5119,33.581113,-83.879567,
Oconee,Roll-off Systems,PBR-108-11TS,TS,1100 B. Garrett Dr.,Statham,GA,30666,Private,,,,,,,,,,,,,,,33.93181,-83.561564,
Oglethorpe,American Stadium Services Transfer Station,PBR-109-10TS,TS,921 Wolfskin Rd.,Arnoldsville,GA,30619,Private,"Jonathan W. Fox, Jr.",,,,,"Jonathan W. Fox, Jr.",921 Wolfskin Rd.,Arnoldsville,GA,30618,,,888,446-4722,33.84727,-83.24942,
Paulding,B&L Disposal,PBR-110-23TS,TS,1126 Memorial Dr.,Dallas,GA,30132,Private,,,,,,,,,,,,,,,33.921218,-84.863731,Unable to verify operational status.
Paulding,"Biopros, Inc. ",PBR-110-34COL,TS,180 Wall Rd.,Hiram,GA,30141,Private Commercial,Deven Rush,180 Wall Rd.,Hiram,GA,30141,Deven Rush,180 Wall Rd.,Hiram,GA,30141,770,630-9506,770,630-9506,33.84,-84.8015,
Peach,Waste Industries - Trans Waste - Byron Transfer Station,PBR-111-08TS,TS,750 Dunbar Rd.,Byron,GA,31008,Private,"Waste Industries, USA, Inc.",,,,,,,,,,,,478,956-5907,32.64924,-83.731,
Peach,City of Fort Valley Public Works,PBR-111-012COL;TS,TS,612 S. Camellia Blvd.,Fort Valley,GA,31030,Public,Larry Brown,612 South Camellia Blvd.,Fort Valley,GA,31030,,,,,,478,825-2615,,,32.547546,-83.895914,
Pickens,"Nivek Services, Inc. Biomedical Waste Collection and Transfer Station","PBR-112-12COL,TS",TS,"515 N. Main St., Site D",Jasper,GA,30143,Private Commercial,Kevin Loner,"616 N. Main St., Suite D",Jasper,GA,30143,Kevin Loner,"616 N. Main St., Suite D",Jasper,GA,30143,678,454-3791,678,454-3791,34.47258,-84.436669,
Pike,"Pike Countryside Sanitation, Inc. Transfer Station",PBR-114-17TS,TS,372 Twin Oaks Rd.,Williamson,GA,30292,Private,,,,,,,,,,,,,770,884-3000,33.11908,-84.36382,
Polk,"Avery Environmental Services, Inc. (Randall Wood Services & Recycle Worldwide Service, Inc.)",PBR-115-09TS,TS,1689 Prospect Rd.,Aragon,GA,30104,Private Commercial,Scott Rakestraw,1689 Prospect Rd.,Aragon,GA,30104,Scott Rakestraw,1689 Prospect Rd.,Aragon,GA,30104,770,684-9881,678,873-3111,34.04926,-85.0743,
Polk,"Avery Environmental Services, Inc. [Randall Wood Services, Inc.]",PBR-115-11TS,TS,Atlanta Hwy. #101,Rockmart,GA,30513,Private,Scott Rakestraw,1689 Prospect Rd.,Aragon,GA,30104,Scott Rakestraw,1689 Prospect Rd.,Aragon,GA,30104,770,684-9881,678,873-3111,33.972873,-85.012604,
Putnam,Advanced Disposal Services - Eatonton Transfer Station,PBR-117-09TS,TS,160 Imperial Mill Rd.,Eatonton,GA,31204,Private Commercial,"Charlie Gray, RVP; Mell Sammons",8880 Federal Rd.,Ball Ground,GA,30107,,,,,,904,737-7900,,,33.336874,-83.396704,
Putnam,"Horton Homes, Inc.",PBR-117-10TS,TS,101 Industrial Blvd.,Eatonton,GA,31024,Private Commercial,Horton Homes,101 Industrial Blvd.,Eatonton,GA,31024,Bill Harpe,101 Industrial Blvd.,Eatonton,GA,31024,800,282-2680,800,282-2680,33.298289,-83.374725,
Rabun,Rabun County Board of Commissioners,PBR-119-04TS,TS,Eastman Mountain Landfill Rd. off US 441 south of Clayton,Clayton,GA,30525,Public,Rabun County Board of Commissioners,"25 Courthouse Square, Suite 201",Clayton,GA,30525,Jack Southards,724 Longview Rd.,Clayton,GA,30525,706,782-5271,706,782-2015,34.81244,-83.41287,
Randolph,Randolph County Transfer Station,PBR-120-03TS,TS,Convict Camp Rd. (SR 134),Cuthbert,GA,31740,Public,,,,,,,,,,,,,,,31.795818,-84.748887,
Richmond,"Safety Disposal Systems of Georgia, Inc.",PBR-121-019TS,TS,3105 I-1 Spring Grove Dr.,Augusta,GA,30906,Private,,,,,,,,,,,,,,,33.419435,-82.075415,Unable to verify operational status.
Richmond,"Univar, Inc.",PBR-121-158COL,TS,3230 Perkins Rd.,Augusta,GA,30906,Private,,,,,,,,,,,,,,,33.400139,-81.986464,
Richmond,Waste Management of Augusta Transfer Station,PBR-121-137TS,TS,3946 Goshen Industrial Blvd.,Augusta,GA,30906,Private,,,,,,,,,,,,,,,33.350184,-81.96942,
Richmond,"CSRA Bio-Care, LLC Transfer Station",PBR-121-160TS,TS,1003 Grindstone Creek,Hephzibah,GA,30815,Private Commercial,George R. Barnes,1003 Grindstone Creek,Hephzibah,GA,30815-8407,Yvone B. Barnes,1003 Grindstone Creek,Hephzibah,GA,30815,706,751-4428,706,751-4428,33.2586,-82.0324,
Rockdale,Allied Recycling Inc. d/b/a Covington Highway Transfer Station,"PBR-122-29COL,TS",TS,2495 Old Covington Hwy.,Conyers,GA,30014,Private Commercial,Pete Leonetti,2495 Covington Hwy.,Conyers,GA,30012,Pete Leonetti,2495 Covington Hwy.,Conyers,GA,30012,770,922-6031,770,922-6031,33.693498,-84.068632,
Rockdale,"CFM Environmental Services, Inc.",PBR-122-16TS,TS,"2420 Kinmor Industrial Pkwy. NW, Suite A",Conyers,GA,30012,Private,,,,,,,,,,,,,,,33.693218,-84.065429,Unable to verify operational status.
Rockdale,"Pharmacy Solutions, Inc.",PBR-122-28TS,TS,2084-900 Lake Industrial Court,Conyers,GA,30013,Private,,,,,,,,,,,,,,,33.667442,-83.973613,Unable to verify operational status.
Screven,Screven County Board of Commissioners,PBR-124-03TS,TS,943 Rocky Ford Rd.,Sylvania,GA,30467,Public,,,,,,,,,,,,,,,32.752969,-81.677003,
Seminole,Seminole County Board of Commissioners Transfer Station,PBR-125-03TS,TS,Adjacent to landfill,Donalsonville,GA,31745,Public,,,,,,,,,,,,,,,30.928932,-84.879769,
Spalding,City of Griffin Transfer Station,PBR-126-07TS,TS,1515 Industrial Dr.,Griffin,GA,30224,Public,,,,,,,,,,,,,,,33.220435,-84.29104,
Stephens,Carter's Transfer Station,PBR-127-18TS,TS,McJunkins Rd.,Eastanollee,GA,30538,Private,John L. Carter,5192 Brookhaven Circle,Toccoa,GA,30577,,,,GA,,770,779-5211,,,34.56609,-83.23412,
Stephens,City of Toccoa Transfer Station,PBR-127-03TS,TS,SR 145 and Old Liberty Hill Rd. at landfill,Toccoa,GA,30577,Public,,,,,,,,,,,,,,,34.542086,-83.307516,
Sumter,McMath Road Transfer Station,PBR-129-12TS,TS,361 McMath Mill Rd.,Americus,GA,31709,Private,"Trans Waste Services, LLC",1723 N. Washington St.,Albany,GA,31701,Mike Powell,1723 N. Washington St.,Albany,GA,31701,229,888-5200,229,888-5200,32.0754,-84.2783,
Sumter,Solid Waste Management Corp. Transfer Station,PBR-129-06TS,TS,300 Sweet Ave.,Americus,GA,31709,Private,,,,,,,,,,,,,,,32.053565,-84.206951,Unable to verify operational status.
Sumter,"Ameri-Green Environmental Recycling, LLC",PBR-129-20TS,TS,109 Mathews Dr.,Americus,GA,31709,Private Commercial,Cliff Sizemore,109 Mathews Dr.,Americus,GA,31709,Darrie Art,109 Mathews Dr.,Americus,GA,31709,229,924-3004,229,314-2751,32.0532,-84.2083,
Sumter,Solid Waste Management Corp.,PBR-129-05TS,TS,302 Brady Rd.,Americus,GA,31709,Private,,,,,,,,,,,,,,,31.96422,-84.134375,Unable to verify operational status.
Taylor,WI Disposal Taylor County Rail Transfer Station,PBR-133-03TS,TS,CR 33,Mink,GA,31056,Private Commercial,"WI Taylor County Disposal Services, LLC",208 Southern States Rd.,Maulk,GA,31058,Richard Johnson,"3301 Benson Dr., Suite 601",Raleigh,NC,27609,478,862-2504,404,267-3240,32.46083,-84.37722,
Terrell,Terrell County Transfer Station,PBR-135-01TS,TS,3370 Albany Hwy.,Dawson,GA,31742,Public,"Trans Waste Service, LLC",1723 N. Washington St.,Albany,GA,31701,Mike Powell,1723 N. Washington St.,Albany,GA,31701,229,888-5200,229,883-5200,31.739699,-84.410843,
Tift,Ryder Transportation Services,PBR-137-14TS,TS,8 Farmers Market Rd.,Tifton,GA,31794,Private,,,,,,,,,,,,,,,31.42468,-83.497173,Unable to verify operational status.
Towns,Allen Disposal Transfer Station,PBR-139-06TS,TS,Shake Rag Rd.,Hiawassee,GA,30546,Private,Trudy Allen,P.O. Box 791,Hiawassee,GA,30546,Bill Allen,P.O. Box 791,Hiawassee,GA,30546,706,781-4725,,,34.937746,-83.738331,
Towns,Towns County Transfer Station,PBR-139-03COL;TS,TS,GA Hwy. 288,Hiawassee,GA,30546,Public,Towns County,"48 River St., Suite B",Hiawassee,GA,30546,Bill Kendall,"48 River St., Suite B",Hiawassee,GA,30546,706,896-2276,706,896-2276,34.927523,-83.747853,
Troup,Troup County C&D Landfill,PBR-141-12TS,TS,Parmer Rd.,Mountville,GA,32061,Public,Troup County Board of Commissioners,P.O. Box 1149,Lagrange,GA,30241,Judson F. Gilmer,P.O. Box 1149,Lagrange,GA,30241,706,883-1610,706,883-1610,33.034729,-84.904318,
Troup,C&C Sanitation Transfer,PBR141-11TS,TS,844 Old Hutchinson Mill Rd.,LaGrange,GA,30241,Private,Dan McAdams,2230 Greenville Rd.,LaGrange,GA,30241,Dan McAdams,,,,,706,885-9977,,,32.980969,-85.050694,
Union,Union County Transfer Station,PBR-144-20TS,TS,1226 Deep South Farm Rd.,Blairsville,GA,20512,Private Commercial,Union County,65 Courthouse St.,Blairsville,GA,30512,Lamar Paris,65 Courthouse St.,Blairsville,GA,30512,706,439-6000,706,439-6000,34.893638,-83.958367,
Union,"Regional Disposal Services, Inc.",PBR-144-08TS,TS,Hayfield Rd.,Blairsville,GA,30512,Private Commercial,Darren Rowan,2220 Rowan Dr.,Blarisville,GA,30512,Carren Rowan,2220 Rowan Dr.,Blairsville,GA,30512,706,745-8647,706,745-8647,34.86194,-84.02916,
Upson,Transfer,PBR-145-03TS,TS,Waymanville Rd.,Thomaston,GA,30286,Private,,,,,,,,,,,,,,,32.852409,-84.267518,
Upson,Trans Waste Services - Thomaston Transfer Station,PBR-145-09TS,TS,2616  Waynmanville Rd.,Thomaston,GA,30286,Private,"Trans Waste Services, LLC",3301 Benson Dr.,Raleigh,NC,27609,Richard Johnson,3301 Benson Dr.,Raleigh,NC,27609,919,325-3000,919,325-3000,32.85014,-84.26637,
Walton,City of Monroe Transfer Station,PBR-147-39TS,TS,213 Cherry Hill Rd.,Monroe,GA,30655,Public,City of Monroe,P.O. Box 1249,Monroe,GA,30655,Danny P. Smith,P.O. Box 1249,Monroe,GA,30655,770,267-6933,770,267-6933,33.80852,-83.690584,
Walton,Holder Inert Landfill ,PBR-147-38TS,TS,805 Adamson Dr.,Monroe,GA,30655,Private,,,,,,,,,,,404,683-6634,770,267-7926,33.766527,-83.713001,Unable to verify operational status.
Walton,Walton County Recycling Center / Transfer Station,PBR-147-29TS,TS,2051 Leroy Anderson Rd. SE,Monroe,GA,30655,Public,,,,,,,,,,,,,,,33.761764,-83.703126,
Walton,"Earthwise Industries, Inc. (biomedical waste transfer station)",PBR-147-49TS,TS,4766 Guthrie Cemetery Rd.,Loganville,GA,30052,Private Commercial,"Earthwise Industries, Inc.",P.O. Box 2300,Loganville,GA,30052,John Fullard,1764 Miramonte Way,Lawrenceville,GA,30045,770,979-7555,770,466-1167,33.751959,-83.871789,
Ware,"Republic Services d/b/a Southland Waste Systems, Inc.",PBR-148-09TS,TS,3473 Harris Rd.,Waycross,GA,31503,Private Commercial,Republic Services d/b/a Southland Waste Systems,3473 Harris Rd.,Waycross,GA,31503,Richard Lee,3473 Harris Rd.,Waycross,GA,31503,912,284-1000,912,284-1000,31.259,-82.40479,
Ware,"Security Disposal, Inc.","PBR-148-13COL,TS",TS,3077 Brown Dr.,Waycross,GA,31502,Private,W.H. Gillis,P.O. Box 2047,Waycross,GA,3502,W.H. Gillis,P.O. Box 2047,Waycross,GA,31502,912,283-1003,912,283-1003,31.252382,-82.411272,
Warren,Greenwood Church Road Transfer Station,PBR-149-06TS,TS,2726 Green Wood Church Rd.,Norwood,GA,30821,Private,,,,,,,,,,,,,,,33.494269,-82.800563,Unable to verify operational status.
Washington,Advanced Disposal Services - Hurst Road Transfer Station,PBR-150-06TS,TS,305 McNeely Lane,Tennille,GA,31089,Private Commercial,Advanced Disposal Services,"7915 Baymeadows Way, Suite 300",Jacksonville,FL,32256,"Walter H. Hall, Jr.","7915 Baymeadows Way, Suite 300",Jacksonville,FL,32256,904,737-7900,904,737-7900,32.83111,-82.83972,
Webster,Jones Sanitation,"PBR-152-01COL,TS",TS,Harris @ Ben Williams,Preston,GA,31824,Private,Chris Jones,3428 Ben Williams Rd.,Preston,GA,31824,Chris Jones,3428 Ben Williams Rd.,Preston,GA,31824,229,828-7578,229,828-7578,31.995771,-84.558694,
White,Advanced Disposal Services -White County Transfer Station,PBR-154-03TS,TS,670 Industrial Blvd.,Cleveland,GA,30528,Private,"Harry Barton, Jr.","59 S. Main St., Suite A",Cleveland,GA,30528,,,,,,706,865-6768,,,34.595833,-83.762333,
Whitfield,"Absolute Best, LLC",PBR-155-29TS,TS,4262 Country Way,Cohutta,GA,30710,Private Commercial,Kevin Cleek,4262 Country Way,Cohutta,GA,30710,Kevin Cleek,4262 Country Way,Cohutta,GA,30710,706,852-2228,706,852-2228,34.921482,-84.960781,
Whitfield,"Polk Brothers Roll-off's, Inc.",PBR-155-24TS,TS,3307B Chattanooga Rd.,Tunnel Hill,GA,30755,Private,,,,,,,,,,,,,,,34.83457,-85.045237,Unable to verify operational status.
Whitfield,Hamilton Medical Center,"PBR-155-30COL,TS",TS,1200 Memorial Dr.,Dalton,GA,30720,Private Commercial,,,,,,,,,,,,,,,34.789635,-84.983978,
Whitfield,City of Dalton Public Works Transfer Station,PBR-155-26TS,TS,"1924 Martin Luther King, Jr. Blvd.",Dalton,GA,30723,Public,,,,,,,,,,,,,,,34.778391,-84.933015,Unable to verify operational status.
Whitfield,"North Georgia Disposal, Inc.",PBR-155-18TS,TS,2207 Industrial South Rd.,Dalton,GA,30720,Private,,,,,,,,,,,,,,,34.712286,-84.951291,Unable to verify operational status.
Whitfield,"H.L. ""Bob"" Mooney, Sr. Solid Waste Transfer Facility",PBR-155-25TS,TS,3681 S. Dixie Hwy.,Dalton,GA,30720,Public,"Jordan Holdings, LLC",P.O. Box 589,Dalton,GA,30240,Steve Jordan,P.O. Box 689,Dalton,GA,30720,706,673-2396,706,673-2396,34.690571,-84.991766,
Wilcox,"Southern Renewable Resources, Inc. Transfer Station",PBR-156-05TS,TS,Old county landfill and maintenance facility,Rochelle,GA,31079,Private,,,,,,,,,,,,,,,31.94069,-83.430662,
Wilkes,Wilkes County CR 40 MSWL Transfer Station,PBR-157-02TS,TS,150 Landfill Rd.,Washington,GA,30673,Public,,,,,,,,,,,,,,,33.697242,-82.740632,
Worth,Worth County,PBR-159-08TS,TS,Two miles east of SR 112,Sylvester,GA,31791,Public,Billy McDonald,201 North Main St.,Sylvester,GA,31791,Billy McDonald,201 N. Main St.,Sylvester,GA,31791,,,912,776-8200,31.530735,-83.835454,
